IRIDIUM 155             
1 43573U 18061E   24170.58822168  .00000289  00000+0  96243-4 0  9998
2 43573  86.3969   1.1730 0002236  95.9446 264.2005 14.34217640308920
IRIDIUM 154             
1 43574U 18061F   24170.56919513  .00000090  00000+0  24916-4 0  9996
2 43574  86.3975   1.2786 0002120  83.2065 276.9372 14.34218071308970
IRIDIUM 163             
1 43575U 18061G   24170.61993613  .00000077  00000+0  20575-4 0  9998
2 43575  86.3973   1.1957 0002121  89.5329 270.6109 14.34218015308956
IRIDIUM 156             
1 43576U 18061H   24170.59456694  .00000086  00000+0  23514-4 0  9995
2 43576  86.3974   1.2127 0002296  91.4269 268.7190 14.34218311308942
IRIDIUM 164             
1 43577U 18061J   24170.57553765  .00000322  00000+0  10809-3 0  9996
2 43577  86.3975   1.2495 0002394  82.5504 277.5964 14.34217500308984
IRIDIUM 159             
1 43578U 18061K   24170.61359181  .00000118  00000+0  35120-4 0  9995
2 43578  86.3970   1.1856 0002152  81.5751 278.5688 14.34218662308956
IRIDIUM 180             
1 43922U 19002A   24170.61308963  .00000035  00000+0  53060-5 0  9998
2 43922  86.3959 298.0648 0002100  91.9695 268.1742 14.34217879284562
IRIDIUM 176             
1 43923U 19002B   24170.61314388  .00001325  00000+0  20616-3 0  9999
2 43923  86.6086 298.0864 0002424  88.3433 271.8061 14.72256347292059
IRIDIUM 168             
1 43924U 19002C   24170.60674671  .00000173  00000+0  54741-4 0  9990
2 43924  86.3962 298.1244 0002293  93.1222 267.0236 14.34217711284543
IRIDIUM 173             
1 43925U 19002D   24170.59406218  .00000085  00000+0  23152-4 0  9993
2 43925  86.3956 298.0483 0002136  90.5826 269.5614 14.34217565284520
IRIDIUM 169             
1 43926U 19002E   24170.58616261  .00000472  00000+0  14779-3 0  9998
2 43926  86.4222 329.6790 0001510 157.9563 202.1700 14.38606028285475
IRIDIUM 172             
1 43927U 19002F   24170.58771941  .00000060  00000+0  14246-4 0  9999
2 43927  86.3958 298.0567 0002226  90.8573 269.2878 14.34217972284531
IRIDIUM 175             
1 43928U 19002G   24170.53947219  .00001366  00000+0  21265-3 0  9996
2 43928  86.1505 271.1786 0001923 100.5762 259.5671 14.72256623292030
IRIDIUM 171             
1 43929U 19002H   24170.63846033  .00000328  00000+0  11010-3 0  9994
2 43929  86.3968 298.2613 0002408  92.2675 267.8797 14.34219607284530
IRIDIUM 170             
1 43930U 19002J   24170.41541351  .00001321  00000+0  20555-3 0  9995
2 43930  86.6088 298.1741 0002261  88.9203 271.2273 14.72260641292033
IRIDIUM 167             
1 43931U 19002K   24170.63211733 -.00000002  00000+0 -76124-5 0  9990
2 43931  86.3959 298.0543 0002119  94.8277 265.3160 14.34217613284530
IRIDIUM 181             
1 56726U 23068S   24170.42399139  .00000514  00000+0  14604-3 0  9996
2 56726  86.8637 351.9354 0002349  94.6614 265.4856 14.43604188 57315
IRIDIUM 177             
1 56727U 23068T   24170.44204913  .00001933  00000+0  25093-3 0  9994
2 56727  86.1964 314.7636 0002612  85.6590 274.4929 14.80223886 58560
IRIDIUM 174             
1 56728U 23068U   24170.43661628  .00001740  00000+0  22551-3 0  9996
2 56728  86.1974 314.8706 0002137  96.0661 264.0803 14.80236814 58569
IRIDIUM 178             
1 56729U 23068V   24170.49885345  .00001792  00000+0  23233-3 0  9992
2 56729  86.5777 332.3690 0001875  88.5275 271.6161 14.80242567 58571
IRIDIUM 179             
1 56730U 23068W   24170.49340288  .00001771  00000+0  22968-3 0  9997
2 56730  86.6787 336.5221 0002022  92.2736 267.8717 14.80222812 58575
